{
    "links": {
        "self": "http://www.neowsapp.com/rest/v1/neo/3648003?api_key=iIulBulltgU6a56xZRHN4H3l9WmuAYTsLGpBGhQ2"
    },
    "id": "3648003",
    "neo_reference_id": "3648003",
    "name": "(2013 RT43)",
    "designation": "2013 RT43",
    "nasa_jpl_url": "http://ssd.jpl.nasa.gov/sbdb.cgi?sstr=3648003",
    "absolute_magnitude_h": 24.3,
    "estimated_diameter": {
        "kilometers": {
            "estimated_diameter_min": 0.0366906138,
            "estimated_diameter_max": 0.0820427065
        },
        "meters": {
            "estimated_diameter_min": 36.6906137531,
            "estimated_diameter_max": 82.0427064882
        },
        "miles": {
            "estimated_diameter_min": 0.0227984834,
            "estimated_diameter_max": 0.0509789586
        },
        "feet": {
            "estimated_diameter_min": 120.3760332259,
            "estimated_diameter_max": 269.1689931548
        }
    },
    "is_potentially_hazardous_asteroid": false,
    "close_approach_data": [
        {
            "close_approach_date": "2013-09-06",
            "close_approach_date_full": "2013-Sep-06 16:59",
            "epoch_date_close_approach": 1378486740000,
            "relative_velocity": {
                "kilometers_per_second": "7.3563091105",
                "kilometers_per_hour": "26482.7127979713",
                "miles_per_hour": "16455.3278493839"
            },
            "miss_distance": {
                "astronomical": "0.0336814967",
                "lunar": "13.1021022163",
                "kilometers": "5038680.164732029",
                "miles": "3130890.6730348402"
            },
            "orbiting_body": "Earth"
        }
    ],
    "orbital_data": {
        "orbit_id": "10",
        "orbit_determination_date": "2017-04-06 08:44:43",
        "first_observation_date": "2013-09-12",
        "last_observation_date": "2013-10-29",
        "data_arc_in_days": 47,
        "observations_used": 35,
        "orbit_uncertainty": "7",
        "minimum_orbit_intersection": ".0228942",
        "jupiter_tisserand_invariant": "3.347",
        "epoch_osculation": "2459000.5",
        "eccentricity": ".560444062676843",
        "semi_major_axis": "2.321769059773855",
        "inclination": "1.309938675118666",
        "ascending_node_longitude": "130.661725613275",
        "orbital_period": "1292.191726351818",
        "perihelion_distance": "1.020547375316802",
        "perihelion_argument": "226.6720655121052",
        "aphelion_distance": "3.622990744230908",
        "perihelion_time": "2459138.025747202878",
        "mean_anomaly": "321.6858179917209",
        "mean_motion": ".2785964285782655",
        "equinox": "J2000",
        "orbit_class": {
            "orbit_class_type": "AMO",
            "orbit_class_description": "Near-Earth asteroid orbits similar to that of 1221 Amor",
            "orbit_class_range": "1.017 AU < q (perihelion) < 1.3 AU"
        }
    },
    "is_sentry_object": false
}